{
  "type": "FeatureCollection",
  "features": [
    {
      "type": "Feature",
      "properties": {
        "norad_id": 37781,
        "name": "HAIYANG-2A",
        "group": "resource",
        "lat": -17.18362356275531,
        "lon": 163.33303624967576,
        "alt_km": 973.2738642194236,
        "timestamp": "2025-12-11T07:02:23.390560+00:00",
        "meta_object_name": "HAIYANG-2A",
        "meta_object_id": "2011-043A",
        "meta_epoch": "2025-12-10T23:07:11.883072",
        "meta_mean_motion": 13.78835221,
        "meta_eccentricity": 0.00016445,
        "meta_inclination": 99.338,
        "meta_ra_of_asc_node": 345.9247,
        "meta_arg_of_pericenter": 85.4562,
        "meta_mean_anomaly": 274.6778,
        "meta_ephemeris_type": 0,
        "meta_classification_type": "U",
        "meta_norad_cat_id": 37781,
        "meta_element_set_no": 999,
        "meta_rev_at_epoch": 72074,
        "meta_bstar": 0.00011144301,
        "meta_mean_motion_dot": 6.9e-07,
        "meta_mean_motion_ddot": 0,
        "tle_line1": "1 37781U 11043A   25344.96333198  .00000069  00000+0  11144-3 0  9993",
        "tle_line2": "2 37781  99.3380 345.9247 0001644  85.4562 274.6778 13.78835221720740"
      },
      "geometry": {
        "type": "Point",
        "coordinates": [
          163.33303624967576,
          -17.18362356275531
        ]
      }
    },
    {
      "type": "Feature",
      "properties": {
        "norad_id": 37791,
        "name": "RASAT",
        "group": "resource",
        "lat": -30.8319615507012,
        "lon": -110.28253339600192,
        "alt_km": 685.9256890117058,
        "timestamp": "2025-12-11T07:02:23.390571+00:00",
        "meta_object_name": "RASAT",
        "meta_object_id": "2011-044D",
        "meta_epoch": "2025-12-10T22:28:49.560672",
        "meta_mean_motion": 14.67905398,
        "meta_eccentricity": 0.00219264,
        "meta_inclination": 98.0649,
        "meta_ra_of_asc_node": 74.221,
        "meta_arg_of_pericenter": 70.281,
        "meta_mean_anomaly": 57.1019,
        "meta_ephemeris_type": 0,
        "meta_classification_type": "U",
        "meta_norad_cat_id": 37791,
        "meta_element_set_no": 999,
        "meta_rev_at_epoch": 76556,
        "meta_bstar": 0.00018054371,
        "meta_mean_motion_dot": 9.87e-06,
        "meta_mean_motion_ddot": 0,
        "tle_line1": "1 37791U 11044D   25344.93668473  .00000987  00000+0  18054-3 0  9995",
        "tle_line2": "2 37791  98.0649  74.2210 0021926  70.2810  57.1019 14.67905398765563"
      },
      "geometry": {
        "type": "Point",
        "coordinates": [
          -110.28253339600192,
          -30.8319615507012
        ]
      }
    },
    {
      "type": "Feature",
      "properties": {
        "norad_id": 37841,
        "name": "SRMSAT",
        "group": "resource",
        "lat": -19.952834416967768,
        "lon": 25.235724291266614,
        "alt_km": 846.650746591813,
        "timestamp": "2025-12-11T07:02:23.390582+00:00",
        "meta_object_name": "SRMSAT",
        "meta_object_id": "2011-058D",
        "meta_epoch": "2025-12-10T16:20:28.552992",
        "meta_mean_motion": 14.11510466,
        "meta_eccentricity": 0.00117159,
        "meta_inclination": 19.9705,
        "meta_ra_of_asc_node": 120.4116,
        "meta_arg_of_pericenter": 290.6404,
        "meta_mean_anomaly": 99.2293,
        "meta_ephemeris_type": 0,
        "meta_classification_type": "U",
        "meta_norad_cat_id": 37841,
        "meta_element_set_no": 999,
        "meta_rev_at_epoch": 73115,
        "meta_bstar": 0.00014227219,
        "meta_mean_motion_dot": 5.27e-06,
        "meta_mean_motion_ddot": 0,
        "tle_line1": "1 37841U 11058D   25344.68088603  .00000527  00000+0  14227-3 0  9997",
        "tle_line2": "2 37841  19.9705 120.4116 0011715 290.6404  99.2293 14.11510466731151"
      },
      "geometry": {
        "type": "Point",
        "coordinates": [
          25.235724291266614,
          -19.952834416967768
        ]
      }
    },
    {
      "type": "Feature",
      "properties": {
        "norad_id": 38012,
        "name": "PLEIADES 1A",
        "group": "resource",
        "lat": 53.75742967508712,
        "lon": 46.764187070693325,
        "alt_km": 691.8672756166316,
        "timestamp": "2025-12-11T07:02:23.390592+00:00",
        "meta_object_name": "PLEIADES 1A",
        "meta_object_id": "2011-076F",
        "meta_epoch": "2025-12-10T23:21:06.710976",
        "meta_mean_motion": 14.58558107,
        "meta_eccentricity": 0.00013263,
        "meta_inclination": 98.1822,
        "meta_ra_of_asc_node": 57.7684,
        "meta_arg_of_pericenter": 73.357,
        "meta_mean_anomaly": 100.2764,
        "meta_ephemeris_type": 0,
        "meta_classification_type": "U",
        "meta_norad_cat_id": 38012,
        "meta_element_set_no": 999,
        "meta_rev_at_epoch": 74455,
        "meta_bstar": 0.00012561853,
        "meta_mean_motion_dot": 5.38e-06,
        "meta_mean_motion_ddot": 0,
        "tle_line1": "1 38012U 11076F   25344.97299434  .00000538  00000+0  12562-3 0  9998",
        "tle_line2": "2 38012  98.1822  57.7684 0001326  73.3570 100.2764 14.58558107744559"
      },
      "geometry": {
        "type": "Point",
        "coordinates": [
          46.764187070693325,
          53.75742967508712
        ]
      }
    },
    {
      "type": "Feature",
      "properties": {
        "norad_id": 38038,
        "name": "ZIYUAN 1-02C (ZY 1-02C)",
        "group": "resource",
        "lat": 67.56948075316426,
        "lon": 30.2707248869546,
        "alt_km": 756.9923778364437,
        "timestamp": "2025-12-11T07:02:23.390602+00:00",
        "meta_object_name": "ZIYUAN 1-02C (ZY 1-02C)",
        "meta_object_id": "2011-079A",
        "meta_epoch": "2025-12-10T23:10:17.560128",
        "meta_mean_motion": 14.38008231,
        "meta_eccentricity": 0.00070754,
        "meta_inclination": 98.433,
        "meta_ra_of_asc_node": 51.0114,
        "meta_arg_of_pericenter": 142.9864,
        "meta_mean_anomaly": 30.0512,
        "meta_ephemeris_type": 0,
        "meta_classification_type": "U",
        "meta_norad_cat_id": 38038,
        "meta_element_set_no": 999,
        "meta_rev_at_epoch": 73215,
        "meta_bstar": 0.00022619542,
        "meta_mean_motion_dot": 6.41e-06,
        "meta_mean_motion_ddot": 0,
        "tle_line1": "1 38038U 11079A   25344.96548102  .00000641  00000+0  22620-3 0  9998",
        "tle_line2": "2 38038  98.4330  51.0114 0007075 142.9864  30.0512 14.38008231732155"
      },
      "geometry": {
        "type": "Point",
        "coordinates": [
          30.2707248869546,
          67.56948075316426
        ]
      }
    },
    {
      "type": "Feature",
      "properties": {
        "norad_id": 38046,
        "name": "ZIYUAN 3-1 (ZY 3-1)",
        "group": "resource",
        "lat": -82.0703559096998,
        "lon": 166.924133487576,
        "alt_km": 371.275870292704,
        "timestamp": "2025-12-11T07:02:23.390613+00:00",
        "meta_object_name": "ZIYUAN 3-1 (ZY 3-1)",
        "meta_object_id": "2012-001A",
        "meta_epoch": "2025-12-10T22:14:56.444352",
        "meta_mean_motion": 15.68191209,
        "meta_eccentricity": 0.00018453,
        "meta_inclination": 97.1753,
        "meta_ra_of_asc_node": 51.3018,
        "meta_arg_of_pericenter": 359.7682,
        "meta_mean_anomaly": 0.3579,
        "meta_ephemeris_type": 0,
        "meta_classification_type": "U",
        "meta_norad_cat_id": 38046,
        "meta_element_set_no": 999,
        "meta_rev_at_epoch": 77468,
        "meta_bstar": 0.00085517398,
        "meta_mean_motion_dot": 0.00096102,
        "meta_mean_motion_ddot": 0,
        "tle_line1": "1 38046U 12001A   25344.92704218  .00096102  00000+0  85517-3 0  9992",
        "tle_line2": "2 38046  97.1753  51.3018 0001845 359.7682   0.3579 15.68191209774689"
      },
      "geometry": {
        "type": "Point",
        "coordinates": [
          166.924133487576,
          -82.0703559096998
        ]
      }
    },
    {
      "type": "Feature",
      "properties": {
        "norad_id": 38338,
        "name": "ARIRANG-3 (KOMPSAT-3)",
        "group": "resource",
        "lat": -63.212405225904526,
        "lon": -43.253695105032016,
        "alt_km": 692.2498901327717,
        "timestamp": "2025-12-11T07:02:23.390623+00:00",
        "meta_object_name": "ARIRANG-3 (KOMPSAT-3)",
        "meta_object_id": "2012-025B",
        "meta_epoch": "2025-12-10T23:07:10.302816",
        "meta_mean_motion": 14.61708913,
        "meta_eccentricity": 0.00054818,
        "meta_inclination": 98.3319,
        "meta_ra_of_asc_node": 299.5394,
        "meta_arg_of_pericenter": 344.6044,
        "meta_mean_anomaly": 15.4989,
        "meta_ephemeris_type": 0,
        "meta_classification_type": "U",
        "meta_norad_cat_id": 38338,
        "meta_element_set_no": 999,
        "meta_rev_at_epoch": 72384,
        "meta_bstar": 0.00020236479,
        "meta_mean_motion_dot": 9.6e-06,
        "meta_mean_motion_ddot": 0,
        "tle_line1": "1 38338U 12025B   25344.96331369  .00000960  00000+0  20236-3 0  9993",
        "tle_line2": "2 38338  98.3319 299.5394 0005481 344.6044  15.4989 14.61708913723844"
      },
      "geometry": {
        "type": "Point",
        "coordinates": [
          -43.253695105032016,
          -63.212405225904526
        ]
      }
    }
  ]
}